CZ-2D R/B               
1 28738U 05024B   26119.94264046  .00048959  00000+0  50283-3 0  9998
2 28738  97.3525 137.1400 0005357 159.4096 200.7381 15.64762628147786
ALOS (DAICHI)           
1 28931U 06002A   26119.89829247  .00001263  00000+0  21922-3 0  9999
2 28931  98.1293  75.6303 0001997 100.1914 259.9517 14.69949128 81003
H-2A R/B                
1 28932U 06002B   26119.92740766  .00008168  00000+0  39765-3 0  9997
2 28932  98.2501 271.4319 0052285  67.9868 292.6906 15.17456073102202
RESURS-DK 1             
1 29228U 06021A   26119.97485575  .00002716  00000+0  15949-3 0  9997
2 29228  69.9315 104.3341 0003673 335.0599  25.0389 15.13009385 95283
CZ-4B R/B               
1 29507U 06046C   26119.85599056  .00005215  00000+0  26047-3 0  9999
2 29507  97.5500 164.6161 0034593  90.5388 269.9809 15.17391168 67809
CZ-2C R/B               
1 31114U 07010B   26119.87273579  .00000112  00000+0  70238-4 0  9992
2 31114  98.4040 230.6007 0059764 144.5605 215.9567 14.20263669986985
COSMO-SKYMED 1          
1 31598U 07023A   26119.94163694  .00003638  00000+0  32246-3 0  9998
2 31598  97.8866 311.3964 0001717  97.6794 262.4622 14.96866426 22579
COSMOS 2428             
1 31792U 07029A   26119.93188049 -.00000196  00000+0 -79558-4 0  9996
2 31792  70.9393  95.7859 0008870 219.3257 140.7221 14.12944265971338
SL-16 R/B               
1 31793U 07029B   26119.96394650  .00000331  00000+0  19602-3 0  9999
2 31793  70.9760  64.5987 0002517 267.9695 158.8932 14.14847637972629
KORONAS-FOTON           
1 33504U 09003A   26119.83306862  .00014926  00000+0  31860-3 0  9994
2 33504  82.4316 222.6529 0009473 335.8614  24.2188 15.44686864953635
CZ-2C R/B               
1 37731U 11030B   26119.88165956  .00001090  00000+0  14321-3 0  9996
2 37731  97.8622  76.1556 0052249 182.1628 238.0986 14.81364467797673
H-2A R/B                
1 38341U 12025E   26119.85206527  .00002771  00000+0  25167-3 0  9993
2 38341  98.4789  91.0350 0045023 144.0060 216.4205 14.95458727755866
SHIJIAN-16 (SJ-16)      
1 39358U 13057A   26119.97791370  .00000614  00000+0  62539-4 0  9995
2 39358  74.9705  87.9793 0016366 342.3876  17.6743 14.92482685679155
SL-4 R/B                
1 39679U 14021B   26119.89164084  .00014291  00000+0  30347-3 0  9997
2 39679  51.6055  87.1613 0092502 290.3526  68.7539 15.40802612664169
ALOS-2                  
1 39766U 14029A   26119.98458169  .00001336  00000+0  18569-3 0  9990
2 39766  97.9207 217.8377 0001696  84.8170 275.3235 14.79476057644452
YAOGAN-29               
1 41038U 15069A   26120.00491777 -.00000193  00000+0 -17081-4 0  9998
2 41038  98.0071 148.5546 0001998 133.7411 226.3968 14.83043155563489
ASTRO-H (HITOMI)        
1 41337U 16012A   26119.92440884  .00003421  00000+0  19794-3 0  9998
2 41337  31.0006  25.8330 0009392 128.0230 232.1257 15.10301160559986
HXMT (HUIYAN)           
1 42758U 17034A   26119.97705447  .00004904  00000+0  24510-3 0  9994
2 42758  43.0131  91.3930 0032043 201.6790 158.2703 15.18028260490330
SAOCOM 1A               
1 43641U 18076A   26119.93351691  .00000556  00000+0  76459-4 0  9996
2 43641  97.8897 307.3815 0001537  88.1605 271.9784 14.82157344408952
H-2A R/B                
1 43682U 18084L   26119.65885009  .00018615  00000+0  41520-3 0  9999
2 43682  98.8654 348.0094 0023609 203.1262 156.8921 15.43358921413639
SAOCOM 1B               
1 46265U 20059A   26119.82975678  .00000800  00000+0  10706-3 0  9994
2 46265  97.8891 306.3729 0001529  87.1467 272.9922 14.82124809306323
CSS (TIANHE)            
1 48274U 21035A   26119.80387662  .00028989  00000+0  31039-3 0  9999
2 48274  41.4671 256.5685 0006703 298.3463  61.6700 15.63178569285600
COSMOS 2550             
1 48865U 21056A   26118.85757205 -.00000109  00000+0  25227-5 0  9995
2 48865  67.1429 249.1245 0008399 269.8654  90.1538 15.33829624271153
CZ-2C R/B               
1 52794U 22058K   26119.24097963  .00043340  00000+0  55004-3 0  9993
2 52794  50.1872  57.4968 0038220  57.6083 302.8579 15.58056658218009
CZ-2C R/B               
1 54039U 22132E   26119.93179807  .00051058  00000+0  48589-3 0  9999
2 54039  97.2926 124.9921 0013122 252.5448 107.4378 15.66578018198381
GSLV R/B                
1 54149U 22138AN  26119.59262925  .00002044  00000+0  17437-3 0  9992
2 54149  87.3808 149.3044 0019914 333.1253  26.8945 14.97043031191544
XRISM                   
1 57800U 23137A   26119.87556391  .00005665  00000+0  31571-3 0  9990
2 57800  31.0023 312.4428 0007756 196.8745 163.1636 15.12047493145541
ACS3                    
1 59588U 24077B   26118.42628241  .00000948  00000+0  75623-3 0  9998
2 59588  97.1803  48.3648 0058342 343.7079  16.2209 13.91927163101119
HTV-X1                  
1 66174U 25241A   26119.64622238  .00013424  00000+0  14981-3 0  9999
2 66174  51.6351 185.8414 0007210   6.0183 354.0897 15.63110381 28753
SZ-21 MODULE            
1 66515U 25246C   26119.37107139  .00037528  00000+0  27400-3 0  9992
2 66515  41.4735 250.4357 0003611 348.4591  11.6169 15.72486354 26041

ISS (ZARYA)             
1 25544U 98067A   26119.68381909  .00007324  00000+0  14081-3 0  9995
2 25544  51.6318 180.1788 0007117   4.9077 355.1979 15.49024031564230
POISK                   
1 36086U 09060A   26119.68381909  .00007324  00000+0  14081-3 0  9993
2 36086  51.6318 180.1788 0007117   4.9077 355.1979 15.49024031563524
CSS (TIANHE)            
1 48274U 21035A   26119.80387662  .00028989  00000+0  31039-3 0  9999
2 48274  41.4671 256.5685 0006703 298.3463  61.6700 15.63178569285600
ISS (NAUKA)             
1 49044U 21066A   26119.68381909  .00007324  00000+0  14081-3 0  9991
2 49044  51.6318 180.1788 0007117   4.9077 355.1979 15.49024031563566
FREGAT DEB              
1 49271U 11037PF  26119.43037095  .00008574  00000+0  13195-1 0  9998
2 49271  51.6406 148.3773 0938091 175.6076 185.3774 12.41136557218991
CSS (WENTIAN)           
1 53239U 22085A   26119.80387662  .00028989  00000+0  31039-3 0  9992
2 53239  41.4671 256.5685 0006703 298.3463  61.6700 15.63178569285797
CSS (MENGTIAN)          
1 54216U 22143A   26119.80387662  .00028989  00000+0  31039-3 0  9993
2 54216  41.4671 256.5685 0006703 298.3463  61.6700 15.63178569285726
TIANZHOU-9              
1 64786U 25149A   26119.80387662  .00028989  00000+0  31039-3 0  9995
2 64786  41.4671 256.5685 0006703 298.3463  61.6700 15.63178569285730
HRC MONOBLOCK CAMERA    
1 66052U 98067XR  26119.84689231  .00060081  00000+0  53604-3 0  9994
2 66052  51.6253 166.2488 0005061 353.5854   6.5077 15.67823999 30404
HTV-X1                  
1 66174U 25241A   26119.64622238  .00013424  00000+0  14981-3 0  9999
2 66174  51.6351 185.8414 0007210   6.0183 354.0897 15.63110381 28753
SZ-21 MODULE            
1 66515U 25246C   26119.37107139  .00037528  00000+0  27400-3 0  9992
2 66515  41.4735 250.4357 0003611 348.4591  11.6169 15.72486354 26041
SHENZHOU-22             
1 66645U 25272A   26119.80387662  .00028989  00000+0  31039-3 0  9998
2 66645  41.4671 256.5685 0006703 298.3463  61.6700 15.63178569285747
SOYUZ-MS 28             
1 66664U 25275A   26119.68381909  .00007324  00000+0  14081-3 0  9994
2 66664  51.6318 180.1788 0007117   4.9077 355.1979 15.49024031563800
DUPLEX                  
1 66906U 98067XS  26119.83993938  .00019977  00000+0  25412-3 0  9997
2 66906  51.6271 172.9697 0005210 358.9019   1.1961 15.59346278 23109
ISS OBJECT XT           
1 66907U 98067XT  26119.15531342  .00645359  19388-3  13206-2 0  9999
2 66907  51.6153 163.7537 0011559  12.7298 347.4001 15.98667726 23161
ISS OBJECT XU           
1 66908U 98067XU  26119.39167167  .00701944  23436-3  13351-2 0  9999
2 66908  51.6142 162.3224 0011276  13.0680 347.0620 15.99960089 23200
ISS OBJECT XW           
1 66910U 98067XW  26119.54279235  .00401636  72599-4  11962-2 0  9995
2 66910  51.6157 162.5968 0011240  10.7491 349.3753 15.91777639 23213
ISS OBJECT XY           
1 66912U 98067XY  26119.84465419  .00144685  00000+0  92759-3 0  9996
2 66912  51.6231 166.2068 0008294   9.6098 350.5059 15.75267013 23186
KNACKSAT-2              
1 67683U 98067XZ  26119.85332384  .00037628  00000+0  53471-3 0  9993
2 67683  51.6295 176.8122 0012619  18.3620 341.7824 15.55930236 12748
CORAL                   
1 67684U 98067YA  26119.85743956  .00108809  00000+0  11382-2 0  9999
2 67684  51.6263 174.5837 0016570  13.2104 346.9321 15.63437611 12773
GXIBA-1                 
1 67685U 98067YB  26119.44349163  .00038936  00000+0  53572-3 0  9998
2 67685  51.6304 178.5742 0014510  14.6310 345.5099 15.56755934 12685
UITMSAT-2               
1 67686U 98067YC  26119.85059283  .00062305  00000+0  79799-3 0  9991
2 67686  51.6294 176.0457 0012027 359.3140   0.7834 15.58501931 12754
HMU-SAT2                
1 67687U 98067YD  26119.39039401  .00037972  00000+0  53069-3 0  9995
2 67687  51.6301 178.9748 0010626 357.6460   2.4480 15.56403043 12598
LEOPARD                 
1 67688U 98067YE  26119.86981108  .00055924  00000+0  73889-3 0  9997
2 67688  51.6292 176.1773 0011252 358.8704   1.2261 15.57730837 12674
CREW DRAGON 12          
1 67796U 26031A   26119.68381909  .00007324  00000+0  14081-3 0  9992
2 67796  51.6318 180.1788 0007117   4.9077 355.1979 15.49024031564404
PROGRESS-MS 33          
1 68319U 26058A   26119.68381909  .00007324  00000+0  14081-3 0  9993
2 68319  51.6318 180.1788 0007117   4.9077 355.1979 15.49024031  5192
CYGNUS NG-24            
1 68689U 26079A   26119.68381909  .00007324  00000+0  14081-3 0  9996
2 68689  51.6318 180.1788 0007117   4.9077 355.1979 15.49024031  2885
PROGRESS-MS 34          
1 68837U 26093A   26119.68381909  .00007324  00000+0  14081-3 0  9997
2 68837  51.6318 180.1788 0007117   4.9077 355.1979 15.49024031   383
